{
  "type": "Feature",
  "properties": {
    "source": "https://www.openstreetmap.org/relation/2094267",
    "method": "Меньший замкнутый контур проезжей части, OSM PBF от 22.09.2026",
    "boundaryPolicy": "Строго внутри внутреннего контура; точки в 50 м от контура требуют ручной проверки"
  },
  "geometry": {
    "type": "Polygon",
    "coordinates": [
      [
        [
          37.6362491,
          55.7310862
        ],
        [
          37.6358497,
          55.731044
        ],
        [
          37.6358172,
          55.7310405
        ],
        [
          37.6357838,
          55.7310368
        ],
        [
          37.6344637,
          55.7308888
        ],
        [
          37.6335504,
          55.7307846
        ],
        [
          37.6329715,
          55.7307186
        ],
        [
          37.6315219,
          55.7305631
        ],
        [
          37.6305766,
          55.7304617
        ],
        [
          37.6303315,
          55.730434
        ],
        [
          37.630297,
          55.7304301
        ],
        [
          37.6294827,
          55.7303212
        ],
        [
          37.629116,
          55.7302743
        ],
        [
          37.6260646,
          55.7299531
        ],
        [
          37.625367,
          55.7298953
        ],
        [
          37.6247974,
          55.7298607
        ],
        [
          37.6241677,
          55.7298337
        ],
        [
          37.6236516,
          55.7298218
        ],
        [
          37.6231523,
          55.7298132
        ],
        [
          37.6226244,
          55.7298059
        ],
        [
          37.6211491,
          55.7297852
        ],
        [
          37.6200738,
          55.7297644
        ],
        [
          37.6191,
          55.7297539
        ],
        [
          37.6183297,
          55.7297418
        ],
        [
          37.6177133,
          55.7297321
        ],
        [
          37.6170929,
          55.7297196
        ],
        [
          37.6164803,
          55.7297072
        ],
        [
          37.6161141,
          55.729703
        ],
        [
          37.6155309,
          55.7296989
        ],
        [
          37.6151642,
          55.7297023
        ],
        [
          37.6148485,
          55.7297093
        ],
        [
          37.6145387,
          55.729725
        ],
        [
          37.6141182,
          55.7297504
        ],
        [
          37.6137049,
          55.7297813
        ],
        [
          37.6133193,
          55.7298162
        ],
        [
          37.6129427,
          55.7298566
        ],
        [
          37.6125787,
          55.7299085
        ],
        [
          37.6122188,
          55.7299665
        ],
        [
          37.611858,
          55.7300326
        ],
        [
          37.6115046,
          55.7301039
        ],
        [
          37.6112197,
          55.7301679
        ],
        [
          37.6109054,
          55.7302507
        ],
        [
          37.6105884,
          55.7303356
        ],
        [
          37.6102064,
          55.7304499
        ],
        [
          37.6094638,
          55.7306846
        ],
        [
          37.6086157,
          55.730954
        ],
        [
          37.6085955,
          55.7309605
        ],
        [
          37.6068963,
          55.7315033
        ],
        [
          37.606107,
          55.7317583
        ],
        [
          37.6051004,
          55.7320837
        ],
        [
          37.6047459,
          55.7321961
        ],
        [
          37.604,
          55.7324349
        ],
        [
          37.6008342,
          55.7334505
        ],
        [
          37.5973498,
          55.7345849
        ],
        [
          37.595428,
          55.7351998
        ],
        [
          37.5946915,
          55.7354355
        ],
        [
          37.5944742,
          55.7355013
        ],
        [
          37.5942469,
          55.7355816
        ],
        [
          37.5937327,
          55.735767
        ],
        [
          37.5930372,
          55.7360058
        ],
        [
          37.5926732,
          55.7361253
        ],
        [
          37.5914138,
          55.7365545
        ],
        [
          37.5910427,
          55.7366866
        ],
        [
          37.5902173,
          55.7370082
        ],
        [
          37.5899619,
          55.7371077
        ],
        [
          37.5895756,
          55.737253
        ],
        [
          37.5895029,
          55.7372823
        ],
        [
          37.5888394,
          55.7375485
        ],
        [
          37.5886955,
          55.7376061
        ],
        [
          37.5879503,
          55.7379053
        ],
        [
          37.5873063,
          55.7381638
        ],
        [
          37.5869818,
          55.7382953
        ],
        [
          37.5867025,
          55.7384196
        ],
        [
          37.5864281,
          55.7385661
        ],
        [
          37.5863192,
          55.7386422
        ],
        [
          37.5862227,
          55.7387222
        ],
        [
          37.5861348,
          55.7388177
        ],
        [
          37.5860107,
          55.7389963
        ],
        [
          37.5859411,
          55.7391125
        ],
        [
          37.585866,
          55.7392378
        ],
        [
          37.5856035,
          55.7396648
        ],
        [
          37.5855236,
          55.7398088
        ],
        [
          37.5855085,
          55.7398364
        ],
        [
          37.5851681,
          55.7405349
        ],
        [
          37.5849082,
          55.7411843
        ],
        [
          37.5848796,
          55.7412549
        ],
        [
          37.5846835,
          55.7417821
        ],
        [
          37.5845041,
          55.7422629
        ],
        [
          37.5844698,
          55.7423545
        ],
        [
          37.5844579,
          55.7423862
        ],
        [
          37.5842114,
          55.7430385
        ],
        [
          37.584149,
          55.7431956
        ],
        [
          37.5839218,
          55.7437646
        ],
        [
          37.5836829,
          55.7443236
        ],
        [
          37.5836403,
          55.7444269
        ],
        [
          37.5835217,
          55.7446948
        ],
        [
          37.5833974,
          55.7449964
        ],
        [
          37.5832567,
          55.7453194
        ],
        [
          37.583186,
          55.7454818
        ],
        [
          37.5831139,
          55.7456517
        ],
        [
          37.5828891,
          55.7461814
        ],
        [
          37.5827779,
          55.7464435
        ],
        [
          37.5826882,
          55.7466504
        ],
        [
          37.5826528,
          55.7467527
        ],
        [
          37.5826242,
          55.7468984
        ],
        [
          37.5826176,
          55.7470186
        ],
        [
          37.5826313,
          55.7471653
        ],
        [
          37.5826413,
          55.7472799
        ],
        [
          37.582709,
          55.7478166
        ],
        [
          37.5827908,
          55.7483648
        ],
        [
          37.5828708,
          55.7489534
        ],
        [
          37.5829107,
          55.7492092
        ],
        [
          37.5829665,
          55.749773
        ],
        [
          37.5830294,
          55.7501381
        ],
        [
          37.5830743,
          55.7503772
        ],
        [
          37.5833619,
          55.7519947
        ],
        [
          37.5835043,
          55.7529527
        ],
        [
          37.583841,
          55.7548685
        ],
        [
          37.5838812,
          55.7549996
        ],
        [
          37.5839241,
          55.755112
        ],
        [
          37.5839601,
          55.7552289
        ],
        [
          37.5841583,
          55.7561211
        ],
        [
          37.5843882,
          55.7571675
        ],
        [
          37.5843907,
          55.7571779
        ],
        [
          37.5844197,
          55.7573182
        ],
        [
          37.5845725,
          55.7580106
        ],
        [
          37.5846234,
          55.758246
        ],
        [
          37.5846818,
          55.7585215
        ],
        [
          37.5847218,
          55.7586385
        ],
        [
          37.5847929,
          55.7588468
        ],
        [
          37.5848159,
          55.7589072
        ],
        [
          37.5848771,
          55.7590449
        ],
        [
          37.5849127,
          55.7591227
        ],
        [
          37.5849651,
          55.7592241
        ],
        [
          37.5851267,
          55.7595093
        ],
        [
          37.5854037,
          55.7599454
        ],
        [
          37.5855125,
          55.7601113
        ],
        [
          37.585672,
          55.7603597
        ],
        [
          37.5858855,
          55.7606606
        ],
        [
          37.5863959,
          55.761376
        ],
        [
          37.5865792,
          55.7616202
        ],
        [
          37.5870237,
          55.7622031
        ],
        [
          37.5871293,
          55.7623396
        ],
        [
          37.5873026,
          55.7625637
        ],
        [
          37.5875719,
          55.7629099
        ],
        [
          37.5877184,
          55.763094
        ],
        [
          37.5879754,
          55.7634142
        ],
        [
          37.5882263,
          55.7636927
        ],
        [
          37.5883946,
          55.7638771
        ],
        [
          37.5885605,
          55.7640515
        ],
        [
          37.5889298,
          55.7644061
        ],
        [
          37.5892715,
          55.7647117
        ],
        [
          37.5895758,
          55.7649518
        ],
        [
          37.5900296,
          55.7652934
        ],
        [
          37.590393,
          55.7655469
        ],
        [
          37.5906371,
          55.7657201
        ],
        [
          37.5907352,
          55.7657876
        ],
        [
          37.5913086,
          55.7662021
        ],
        [
          37.5921567,
          55.7668054
        ],
        [
          37.5923439,
          55.7669386
        ],
        [
          37.592994,
          55.7673839
        ],
        [
          37.5932824,
          55.7675819
        ],
        [
          37.5933352,
          55.7676187
        ],
        [
          37.593767,
          55.7679426
        ],
        [
          37.5940382,
          55.7681245
        ],
        [
          37.5948381,
          55.768633
        ],
        [
          37.5951642,
          55.7688355
        ],
        [
          37.5954785,
          55.7690214
        ],
        [
          37.5957215,
          55.7691548
        ],
        [
          37.5959732,
          55.7692847
        ],
        [
          37.5978011,
          55.7701825
        ],
        [
          37.5980741,
          55.7703167
        ],
        [
          37.5983872,
          55.770457
        ],
        [
          37.5986788,
          55.7705823
        ],
        [
          37.5990098,
          55.7707126
        ],
        [
          37.5992948,
          55.7708186
        ],
        [
          37.5993656,
          55.7708454
        ],
        [
          37.5996098,
          55.7709377
        ],
        [
          37.6001096,
          55.7711076
        ],
        [
          37.6005369,
          55.7712449
        ],
        [
          37.6010685,
          55.771393
        ],
        [
          37.6018742,
          55.7716246
        ],
        [
          37.6023947,
          55.7717737
        ],
        [
          37.6030401,
          55.7719622
        ],
        [
          37.6038072,
          55.7721862
        ],
        [
          37.6041368,
          55.7722825
        ],
        [
          37.6042742,
          55.7723197
        ],
        [
          37.6044849,
          55.7723833
        ],
        [
          37.6046804,
          55.7724266
        ],
        [
          37.605063,
          55.7725123
        ],
        [
          37.6052099,
          55.7725414
        ],
        [
          37.6054032,
          55.772576
        ],
        [
          37.6055289,
          55.772597
        ],
        [
          37.6057452,
          55.7726304
        ],
        [
          37.6070019,
          55.7728139
        ],
        [
          37.6073058,
          55.7728569
        ],
        [
          37.6075878,
          55.7728953
        ],
        [
          37.6078205,
          55.7729242
        ],
        [
          37.6082937,
          55.772983
        ],
        [
          37.608455,
          55.7730003
        ],
        [
          37.6090519,
          55.7730613
        ],
        [
          37.6099797,
          55.7731535
        ],
        [
          37.6103827,
          55.7731916
        ],
        [
          37.6104575,
          55.7731986
        ],
        [
          37.6110876,
          55.7732584
        ],
        [
          37.611748,
          55.7733069
        ],
        [
          37.612362,
          55.7733401
        ],
        [
          37.6131313,
          55.7733686
        ],
        [
          37.6134349,
          55.7733793
        ],
        [
          37.6140815,
          55.7734132
        ],
        [
          37.6144958,
          55.7734308
        ],
        [
          37.6151622,
          55.7734578
        ],
        [
          37.6166407,
          55.7735078
        ],
        [
          37.6174281,
          55.7735355
        ],
        [
          37.6182114,
          55.7735631
        ],
        [
          37.6191207,
          55.773592
        ],
        [
          37.6200277,
          55.773617
        ],
        [
          37.6208856,
          55.7736334
        ],
        [
          37.6217454,
          55.7736393
        ],
        [
          37.6224568,
          55.7736371
        ],
        [
          37.6228865,
          55.7736289
        ],
        [
          37.6231659,
          55.7736236
        ],
        [
          37.6236907,
          55.7736129
        ],
        [
          37.6242117,
          55.7735985
        ],
        [
          37.6246667,
          55.7735814
        ],
        [
          37.6251171,
          55.7735591
        ],
        [
          37.6255017,
          55.7735354
        ],
        [
          37.6258907,
          55.7735059
        ],
        [
          37.6261811,
          55.7734818
        ],
        [
          37.6270559,
          55.7734045
        ],
        [
          37.6276403,
          55.7733343
        ],
        [
          37.6281971,
          55.7732593
        ],
        [
          37.6290214,
          55.7731446
        ],
        [
          37.629172,
          55.7731234
        ],
        [
          37.6302411,
          55.772973
        ],
        [
          37.6305728,
          55.7729258
        ],
        [
          37.631233,
          55.7728328
        ],
        [
          37.6318797,
          55.7727437
        ],
        [
          37.6320382,
          55.7727219
        ],
        [
          37.6322895,
          55.7726884
        ],
        [
          37.6325778,
          55.772651
        ],
        [
          37.6330714,
          55.7725874
        ],
        [
          37.6331645,
          55.7725756
        ],
        [
          37.6333548,
          55.7725527
        ],
        [
          37.6353868,
          55.7723381
        ],
        [
          37.6358209,
          55.7722881
        ],
        [
          37.6362952,
          55.7722227
        ],
        [
          37.6367824,
          55.7721475
        ],
        [
          37.637267,
          55.7720615
        ],
        [
          37.637591,
          55.7719957
        ],
        [
          37.6378888,
          55.7719325
        ],
        [
          37.6383931,
          55.7718059
        ],
        [
          37.6388812,
          55.771673
        ],
        [
          37.6392591,
          55.7715582
        ],
        [
          37.6394575,
          55.7714968
        ],
        [
          37.6397699,
          55.7714024
        ],
        [
          37.6400983,
          55.7713016
        ],
        [
          37.6415772,
          55.7708461
        ],
        [
          37.6423919,
          55.7705987
        ],
        [
          37.6430458,
          55.7704032
        ],
        [
          37.6432089,
          55.7703544
        ],
        [
          37.6434683,
          55.7702753
        ],
        [
          37.6435526,
          55.7702512
        ],
        [
          37.6436273,
          55.7702299
        ],
        [
          37.6437226,
          55.7702027
        ],
        [
          37.644117,
          55.7700768
        ],
        [
          37.6442401,
          55.7700375
        ],
        [
          37.6443773,
          55.7699937
        ],
        [
          37.6454224,
          55.7696742
        ],
        [
          37.6456597,
          55.7696033
        ],
        [
          37.6458841,
          55.7695382
        ],
        [
          37.646125,
          55.7694738
        ],
        [
          37.6471285,
          55.769226
        ],
        [
          37.6473752,
          55.7691649
        ],
        [
          37.6474385,
          55.769148
        ],
        [
          37.6476659,
          55.7690934
        ],
        [
          37.6478304,
          55.7690213
        ],
        [
          37.6480673,
          55.7689389
        ],
        [
          37.6485063,
          55.7688222
        ],
        [
          37.6489251,
          55.7687022
        ],
        [
          37.6493834,
          55.7685619
        ],
        [
          37.6497802,
          55.7684251
        ],
        [
          37.6499967,
          55.7683339
        ],
        [
          37.6501873,
          55.7682265
        ],
        [
          37.6506539,
          55.7679009
        ],
        [
          37.6515403,
          55.7672516
        ],
        [
          37.6519769,
          55.7669292
        ],
        [
          37.6525845,
          55.7664944
        ],
        [
          37.6528421,
          55.7663181
        ],
        [
          37.6534579,
          55.7659073
        ],
        [
          37.6538661,
          55.765635
        ],
        [
          37.654915,
          55.7649202
        ],
        [
          37.6555831,
          55.7644649
        ],
        [
          37.6558512,
          55.7642803
        ],
        [
          37.6560236,
          55.7641501
        ],
        [
          37.6560936,
          55.7640899
        ],
        [
          37.6561443,
          55.7640398
        ],
        [
          37.6562143,
          55.7639642
        ],
        [
          37.656265,
          55.7638961
        ],
        [
          37.6563997,
          55.7636733
        ],
        [
          37.6566463,
          55.7631937
        ],
        [
          37.6569178,
          55.7626524
        ],
        [
          37.6570073,
          55.762449
        ],
        [
          37.6570505,
          55.7623441
        ],
        [
          37.6571629,
          55.7620431
        ],
        [
          37.6572497,
          55.761772
        ],
        [
          37.6573543,
          55.7613387
        ],
        [
          37.6574567,
          55.7606228
        ],
        [
          37.65748,
          55.7603963
        ],
        [
          37.6574868,
          55.7603105
        ],
        [
          37.6574982,
          55.7601684
        ],
        [
          37.6575637,
          55.7593467
        ],
        [
          37.6575912,
          55.7587855
        ],
        [
          37.6576098,
          55.7584065
        ],
        [
          37.6576159,
          55.7581244
        ],
        [
          37.6576116,
          55.7579318
        ],
        [
          37.6575921,
          55.7576461
        ],
        [
          37.6575816,
          55.7574915
        ],
        [
          37.657529,
          55.7570811
        ],
        [
          37.6574221,
          55.75656
        ],
        [
          37.6573191,
          55.756153
        ],
        [
          37.6571588,
          55.755566
        ],
        [
          37.6571365,
          55.7554944
        ],
        [
          37.6568731,
          55.7547518
        ],
        [
          37.6568654,
          55.7547304
        ],
        [
          37.6566104,
          55.7541472
        ],
        [
          37.6566046,
          55.7541339
        ],
        [
          37.6564012,
          55.753674
        ],
        [
          37.656119,
          55.7530215
        ],
        [
          37.6560071,
          55.7527626
        ],
        [
          37.6559442,
          55.7526048
        ],
        [
          37.6559031,
          55.752484
        ],
        [
          37.6558814,
          55.7523607
        ],
        [
          37.655858,
          55.7520907
        ],
        [
          37.6558371,
          55.751785
        ],
        [
          37.6558161,
          55.7512296
        ],
        [
          37.6557979,
          55.7510438
        ],
        [
          37.6557939,
          55.7510035
        ],
        [
          37.6557521,
          55.7504481
        ],
        [
          37.6556988,
          55.7497693
        ],
        [
          37.655649,
          55.7493499
        ],
        [
          37.6556386,
          55.7491753
        ],
        [
          37.6555856,
          55.7485735
        ],
        [
          37.6551071,
          55.7447107
        ],
        [
          37.655063,
          55.7444575
        ],
        [
          37.6550088,
          55.7442039
        ],
        [
          37.6549549,
          55.7440108
        ],
        [
          37.6547524,
          55.7433329
        ],
        [
          37.654641,
          55.7430045
        ],
        [
          37.6544924,
          55.7426729
        ],
        [
          37.6543323,
          55.742385
        ],
        [
          37.6541311,
          55.7420966
        ],
        [
          37.6537965,
          55.7417226
        ],
        [
          37.6534202,
          55.7413489
        ],
        [
          37.6530356,
          55.7410296
        ],
        [
          37.6523428,
          55.7405064
        ],
        [
          37.6519638,
          55.7402334
        ],
        [
          37.6509314,
          55.7395084
        ],
        [
          37.6508463,
          55.7394499
        ],
        [
          37.6508271,
          55.7394366
        ],
        [
          37.650282,
          55.7390625
        ],
        [
          37.6499745,
          55.7388545
        ],
        [
          37.6498132,
          55.738743
        ],
        [
          37.6492853,
          55.7383755
        ],
        [
          37.6450775,
          55.7355342
        ],
        [
          37.6436411,
          55.734534
        ],
        [
          37.6435824,
          55.7345004
        ],
        [
          37.643166,
          55.7342731
        ],
        [
          37.6428703,
          55.7341202
        ],
        [
          37.6426175,
          55.7339847
        ],
        [
          37.6422252,
          55.7337815
        ],
        [
          37.6421126,
          55.7337219
        ],
        [
          37.6415983,
          55.7334527
        ],
        [
          37.6414588,
          55.7333764
        ],
        [
          37.6411946,
          55.733233
        ],
        [
          37.6408325,
          55.7330393
        ],
        [
          37.6404612,
          55.7328323
        ],
        [
          37.6403169,
          55.7327512
        ],
        [
          37.6399776,
          55.7325507
        ],
        [
          37.6398191,
          55.7324532
        ],
        [
          37.639667,
          55.7323496
        ],
        [
          37.6394431,
          55.7322038
        ],
        [
          37.6393043,
          55.7321131
        ],
        [
          37.6390696,
          55.7319719
        ],
        [
          37.6388973,
          55.7318775
        ],
        [
          37.6387095,
          55.7317884
        ],
        [
          37.6385446,
          55.7317159
        ],
        [
          37.6383401,
          55.7316385
        ],
        [
          37.6380651,
          55.7315464
        ],
        [
          37.637809,
          55.7314505
        ],
        [
          37.6376239,
          55.7313825
        ],
        [
          37.6375421,
          55.7313538
        ],
        [
          37.6374724,
          55.7313342
        ],
        [
          37.6372571,
          55.7312783
        ],
        [
          37.6371069,
          55.7312424
        ],
        [
          37.6369252,
          55.7312011
        ],
        [
          37.6367596,
          55.7311666
        ],
        [
          37.6364679,
          55.7311097
        ],
        [
          37.6363596,
          55.7310963
        ],
        [
          37.6362491,
          55.7310862
        ]
      ]
    ]
  }
}
